PROMETHEUS 2-3          
1 41855U 16067H   25152.85924541  .00061003  00000+0  11725-2 0  9993
2 41855  98.0722   4.4767 0003691 280.5677  79.5155 15.47727602469210
CORVUS BC2              
1 42846U 17042X   25153.05307789  .00003235  00000+0  24503-3 0  9992
2 42846  97.3728 326.0060 0013379 337.9576  22.1073 15.02887239429906
CORVUS BC1              
1 42847U 17042Y   25153.03886632  .00004766  00000+0  35674-3 0  9991
2 42847  97.3751 326.5163 0012146 309.5044  50.5108 15.03125474429921
MIRATA                  
1 43015U 17073C   25152.93457383  .00086529  00000+0  14314-2 0  9992
2 43015  97.5397  47.4278 0085278 112.9698 248.0577 15.47810290409624
MAKERSAT 0              
1 43016U 17073D   25153.14619127  .00020349  00000+0  81780-3 0  9993
2 43016  97.5198  31.4032 0147855 165.3892 195.1686 15.15376045408603
SIRION PATHFINDER-2     
1 43759U 18099B   25153.09263553  .00007339  00000+0  45711-3 0  9996
2 43759  97.4774 206.1987 0010286 162.7414 197.4167 15.09819799355188
CORVUS BC4              
1 43767U 18099K   25153.11679361  .00005214  00000+0  33972-3 0  9992
2 43767  97.4591 202.0762 0007883 219.5807 140.4847 15.08316538355035
MOVE-II                 
1 43780U 18099Y   25153.15933964  .00243183  00000+0  17318-2 0  9997
2 43780  97.4647 228.2301 0006383 191.6284 168.4833 15.73102827356632
SPACEBEE-7              
1 43816U 18099BL  25153.10829714  .00041222  00000+0  11765-2 0  9999
2 43816  97.4951 223.1990 0007773 137.4474 222.7373 15.35890445355653
SHIELDS 1               
1 43850U 18104B   25153.12972179  .00039877  00000+0  47885-3 0  9996
2 43850  85.0152  41.7952 0007676 150.8887 209.2806 15.60678148360297
SONATE                  
1 44400U 19038Q   25153.03850082  .00302980  36136-4  99282-3 0  9993
2 44400  97.6869 179.0464 0005265 213.1139 146.9805 15.90540132328374
DUCHIFAT-3              
1 44854U 19089C   25153.06972453  .00049791  00000+0  99003-3 0  9997
2 44854  36.9443  42.9267 0005038 267.8732  92.1448 15.45935427301789
M2 PATHFINDER           
1 45727U 20037E   25153.07844517  .00002658  00000+0  20644-3 0  9998
2 45727  97.8136 335.6773 0012916   4.7652 355.3692 15.02161378268382
NETSAT-4                
1 46504U 20068U   25152.89262343  .00017669  00000+0  60583-3 0  9990
2 46504  97.8452 130.2884 0005877 215.9113 144.1732 15.30233766257373
NETSAT-3                
1 46505U 20068V   25152.68131237  .00034363  00000+0  12272-2 0  9996
2 46505  97.8452 129.0254 0005318 230.9641 129.1125 15.28761145257300
NETSAT-1                
1 46506U 20068W   25152.90647752  .00011837  00000+0  49094-3 0  9990
2 46506  97.8480 127.1451 0004709 250.9173 109.1553 15.24031589257193
NETSAT-2                
1 46507U 20068X   25153.20826502  .00017331  00000+0  60172-3 0  9992
2 46507  97.8450 130.1126 0003575 248.4455 111.6403 15.29841516257364
WILDTRACKCUBE-SIMBA     
1 47941U 21022K   25153.19351277  .00036390  00000+0  77007-3 0  9997
2 47941  97.4229  57.5626 0008871 354.7539   5.3615 15.45003251232059
GRBALPHA                
1 47959U 21022AD  25153.14152241  .01015035  54469-3  16314-2 0  9990
2 47959  97.4026  67.3670 0006363 167.3620 192.7821 16.03652657231519
LEDSAT                  
1 49069U 21073D   25153.18771142  .00070319  00000+0  87106-3 0  9992
2 49069  97.3884 234.4209 0010652 111.2755 248.9640 15.59777154210286
GREENCUBE (IO-117)      
1 53109U 22080E   25151.09697255 -.00000003  00000+0  00000+0 0  9999
2 53109  70.1400  71.1167 0008718  10.9271 349.1577  6.42584020 67515
SITRO-AIS 5 (KATYS)     
1 57176U 23091L   25153.18069270  .00012135  00000+0  57073-3 0  9996
2 57176  97.5581 210.1196 0013703   2.8498 357.2812 15.19641367106455
SITRO-AIS 6 (CHIRKIN)   
1 57192U 23091AC  25153.16762952  .00013088  00000+0  61683-3 0  9999
2 57192  97.5580 210.1180 0013642   2.7792 357.3516 15.19550254106459
SITRO-AIS 8 (ANOKHIN)   
1 57193U 23091AD  25153.14784196  .00012904  00000+0  58438-3 0  9992
2 57193  97.5578 210.5872 0013028   3.1701 356.9615 15.20936003106482
SITRO-AIS 7 (FARTUSHNIY)
1 57194U 23091AE  25153.18877494  .00012619  00000+0  59649-3 0  9999
2 57194  97.5578 210.0793 0013500   3.4443 356.6882 15.19459458106453
SITRO-AIS 10 (BURDAEV)  
1 57199U 23091AK  25153.21110573  .00015852  00000+0  65107-3 0  9994
2 57199  97.5590 212.9337 0008372 349.0462  11.0591 15.24257266106636
SITRO-AIS 9 (SHCHUKIN)  
1 57201U 23091AM  25153.16228420  .00016232  00000+0  67026-3 0  9998
2 57201  97.5587 212.8011 0008370 349.5093  10.5968 15.24070912106629
SITRO-AIS 12 (SMIRENNIY)
1 57204U 23091AQ  25153.14534313  .00015661  00000+0  64303-3 0  9990
2 57204  97.5596 213.0626 0008107 342.6698  17.4261 15.24272687106636
SITRO-AIS 11 (SHEFFER)  
1 57208U 23091AU  25153.16493025  .00016811  00000+0  68590-3 0  9990
2 57208  97.5595 213.1690 0007955 342.9610  17.1359 15.24471539106641
VERONIKA                
1 58261U 23174F   25153.18921533  .00147952  00000+0  12974-2 0  9999
2 58261  97.4117 238.9303 0003162 114.4467 245.7124 15.68384202 87526
ROBUSTA-1E (ENSO)       
1 58470U 23185J   25153.17500475  .00057988  00000+0  85819-3 0  9998
2 58470  97.3732 228.0604 0008363 115.1501 245.0622 15.55068258 83886
SITRO-AIS 25            
1 59066U 24039R   25153.20005465  .00006330  00000+0  53934-3 0  9990
2 59066  95.3759 334.9916 0154855 211.9916 147.1836 14.89046839 68093
SITRO-AIS 26            
1 59067U 24039S   25153.15801087  .00006001  00000+0  51323-3 0  9994
2 59067  95.3757 334.9240 0155100 212.3942 146.7688 14.88896180 68080
SITRO-AIS 27            
1 59068U 24039T   25153.22182753  .00005763  00000+0  48968-3 0  9990
2 59068  95.3758 335.0887 0154386 211.5268 147.6636 14.89220136 68107
SITRO-AIS 28            
1 59071U 24039U   25153.20909695  .00005958  00000+0  50584-3 0  9997
2 59071  95.3763 335.1061 0154207 211.4607 147.7325 14.89263646 68109
GRBBETA                 
1 60237U 24128C   25152.94997079  .00006337  00000+0  47604-3 0  9996
2 60237  61.9912 106.1599 0051423  55.7818 304.8129 15.02556232 49054
OOV-CUBE (TUBSAT-30)    
1 60240U 24128F   25152.86479132  .00004014  00000+0  32702-3 0  9999
2 60240  61.9955 109.1617 0051267  52.6059 307.9682 15.00206740 49005
ROBUSTA-3A (MEDITERRAN*)
1 60243U 24128J   25153.19864876  .00010949  00000+0  77007-3 0  9993
2 60243  61.9879 104.4963 0050064  49.4252 311.1180 15.04517450 49117
LASARSAT                
1 62391U 24247Q   25152.85158200  .00019302  00000+0  75234-3 0  9992
2 62391  44.9850 202.0344 0007795 351.8828   8.1926 15.25698526 24888
CROCUBE                 
1 62394U 24247T   25152.84660866  .00019979  00000+0  77401-3 0  9998
2 62394  44.9806 201.9834 0008235 352.9820   7.0946 15.25878062 24883
